[
    {
        "Altitude(m)": 706476.4884377206,
        "Argument of Periapsis(deg)": 0.0034170363559881197,
        "Eccentricity": 0.0,
        "Inclination(deg)": 45.0,
        "Latitude(deg)": 41.42845879499614,
        "Longitude(deg)": 16.162515947896427,
        "Mean Anomaly(deg)": 68.91446499424426,
        "RAAN(deg)": 54.996774417562534,
        "Satellite Name": "Constellation 1 246",
        "Satellite Number": 246,
        "Semi-Major Axis(m)": 7083131.272910544,
        "Time(s)": 57
    },
    {
        "Altitude(m)": 706480.9908419992,
        "Argument of Periapsis(deg)": 0.003476984362233526,
        "Eccentricity": 0.0,
        "Inclination(deg)": 45.0,
        "Latitude(deg)": 41.449054194769104,
        "Longitude(deg)": 16.234453782449986,
        "Mean Anomaly(deg)": 68.97516613449413,
        "RAAN(deg)": 54.996717828396974,
        "Satellite Name": "Constellation 1 246",
        "Satellite Number": 246,
        "Semi-Major Axis(m)": 7083131.272910544,
        "Time(s)": 58
    },
    {
        "Altitude(m)": 706485.4834961123,
        "Argument of Periapsis(deg)": 0.003536932368478932,
        "Eccentricity": 0.0,
        "Inclination(deg)": 45.0,
        "Latitude(deg)": 41.469599237235336,
        "Longitude(deg)": 16.306439470660766,
        "Mean Anomaly(deg)": 69.03586727474405,
        "RAAN(deg)": 54.9966612392314,
        "Satellite Name": "Constellation 1 246",
        "Satellite Number": 246,
        "Semi-Major Axis(m)": 7083131.272910544,
        "Time(s)": 59
    },
    {
        "Altitude(m)": 706489.9663731782,
        "Argument of Periapsis(deg)": 0.003596880374724337,
        "Eccentricity": 0.0,
        "Inclination(deg)": 45.0,
        "Latitude(deg)": 41.49009385493249,
        "Longitude(deg)": 16.378473296079747,
        "Mean Anomaly(deg)": 69.09656841499391,
        "RAAN(deg)": 54.996604650065834,
        "Satellite Name": "Constellation 1 246",
        "Satellite Number": 246,
        "Semi-Major Axis(m)": 7083131.272910544,
        "Time(s)": 60
    },
    {
        "Altitude(m)": 706494.4394463532,
        "Argument of Periapsis(deg)": 0.0036568283809697427,
        "Eccentricity": 0.0,
        "Inclination(deg)": 45.0,
        "Latitude(deg)": 41.51053798045274,
        "Longitude(deg)": 16.450555037437,
        "Mean Anomaly(deg)": 69.15726955524383,
        "RAAN(deg)": 54.99654806090026,
        "Satellite Name": "Constellation 1 246",
        "Satellite Number": 246,
        "Semi-Major Axis(m)": 7083131.272910544,
        "Time(s)": 61
    },
    {
        "Altitude(m)": 706498.9026888722,
        "Argument of Periapsis(deg)": 0.003716776387215149,
        "Eccentricity": 0.0,
        "Inclination(deg)": 45.0,
        "Latitude(deg)": 41.53093154644461,
        "Longitude(deg)": 16.52268464102906,
        "Mean Anomaly(deg)": 69.21797069549373,
        "RAAN(deg)": 54.9964914717347,
        "Satellite Name": "Constellation 1 246",
        "Satellite Number": 246,
        "Semi-Major Axis(m)": 7083131.272910544,
        "Time(s)": 62
    },
    {
        "Altitude(m)": 706503.3560740312,
        "Argument of Periapsis(deg)": 0.003776724393460554,
        "Eccentricity": 0.0,
        "Inclination(deg)": 45.0,
        "Latitude(deg)": 41.551274485613554,
        "Longitude(deg)": 16.594862052620787,
        "Mean Anomaly(deg)": 69.27867183574361,
        "RAAN(deg)": 54.996434882569126,
        "Satellite Name": "Constellation 1 246",
        "Satellite Number": 246,
        "Semi-Major Axis(m)": 7083131.272910544,
        "Time(s)": 63
    },
    {
        "Altitude(m)": 706507.799575179,
        "Argument of Periapsis(deg)": 0.003836672399705959,
        "Eccentricity": 0.0,
        "Inclination(deg)": 45.0,
        "Latitude(deg)": 41.57156673072283,
        "Longitude(deg)": 16.667087217444944,
        "Mean Anomaly(deg)": 69.33937297599354,
        "RAAN(deg)": 54.99637829340355,
        "Satellite Name": "Constellation 1 246",
        "Satellite Number": 246,
        "Semi-Major Axis(m)": 7083131.272910544,
        "Time(s)": 64
    },
    {
        "Altitude(m)": 706512.2331657377,
        "Argument of Periapsis(deg)": 0.003896620405951365,
        "Eccentricity": 0.0,
        "Inclination(deg)": 45.0,
        "Latitude(deg)": 41.591808214594174,
        "Longitude(deg)": 16.73936008020066,
        "Mean Anomaly(deg)": 69.40007411624342,
        "RAAN(deg)": 54.99632170423798,
        "Satellite Name": "Constellation 1 246",
        "Satellite Number": 246,
        "Semi-Major Axis(m)": 7083131.272910544,
        "Time(s)": 65
    },
    {
        "Altitude(m)": 706516.6568191929,
        "Argument of Periapsis(deg)": 0.003956568412196771,
        "Eccentricity": 0.0,
        "Inclination(deg)": 45.0,
        "Latitude(deg)": 41.61199887010875,
        "Longitude(deg)": 16.81168058505344,
        "Mean Anomaly(deg)": 69.46077525649333,
        "RAAN(deg)": 54.99626511507241,
        "Satellite Name": "Constellation 1 246",
        "Satellite Number": 246,
        "Semi-Major Axis(m)": 7083131.272910544,
        "Time(s)": 66
    },
    {
        "Altitude(m)": 706521.0705090885,
        "Argument of Periapsis(deg)": 0.004016516418442176,
        "Eccentricity": 0.0,
        "Inclination(deg)": 45.0,
        "Latitude(deg)": 41.63213863020756,
        "Longitude(deg)": 16.884048507536345,
        "Mean Anomaly(deg)": 69.52147639674324,
        "RAAN(deg)": 54.99620852590684,
        "Satellite Name": "Constellation 1 246",
        "Satellite Number": 246,
        "Semi-Major Axis(m)": 7083131.272910544,
        "Time(s)": 67
    },
    {
        "Altitude(m)": 706525.4742090349,
        "Argument of Periapsis(deg)": 0.004076464424687581,
        "Eccentricity": 0.0,
        "Inclination(deg)": 45.0,
        "Latitude(deg)": 41.65222742789342,
        "Longitude(deg)": 16.95646412693813,
        "Mean Anomaly(deg)": 69.58217753699316,
        "RAAN(deg)": 54.99615193674128,
        "Satellite Name": "Constellation 1 246",
        "Satellite Number": 246,
        "Semi-Major Axis(m)": 7083131.272910544,
        "Time(s)": 68
    },
    {
        "Altitude(m)": 706529.867892708,
        "Argument of Periapsis(deg)": 0.004136412430932987,
        "Eccentricity": 0.0,
        "Inclination(deg)": 45.0,
        "Latitude(deg)": 41.67226519623015,
        "Longitude(deg)": 17.028927217719534,
        "Mean Anomaly(deg)": 69.642878677243,
        "RAAN(deg)": 54.996095347575704,
        "Satellite Name": "Constellation 1 246",
        "Satellite Number": 246,
        "Semi-Major Axis(m)": 7083131.272910544,
        "Time(s)": 69
    },
    {
        "Altitude(m)": 706534.2515338461,
        "Argument of Periapsis(deg)": 0.004196360437178394,
        "Eccentricity": 0.0,
        "Inclination(deg)": 45.0,
        "Latitude(deg)": 41.69225186834444,
        "Longitude(deg)": 17.101437721901203,
        "Mean Anomaly(deg)": 69.70357981749292,
        "RAAN(deg)": 54.99603875841014,
        "Satellite Name": "Constellation 1 246",
        "Satellite Number": 246,
        "Semi-Major Axis(m)": 7083131.272910544,
        "Time(s)": 70
    },
    {
        "Altitude(m)": 706538.6251062454,
        "Argument of Periapsis(deg)": 0.004256308443423799,
        "Eccentricity": 0.0,
        "Inclination(deg)": 45.0,
        "Latitude(deg)": 41.71218737742635,
        "Longitude(deg)": 17.173995580965396,
        "Mean Anomaly(deg)": 69.76428095774281,
        "RAAN(deg)": 54.99598216924456,
        "Satellite Name": "Constellation 1 246",
        "Satellite Number": 246,
        "Semi-Major Axis(m)": 7083131.272910544,
        "Time(s)": 71
    },
    {
        "Altitude(m)": 706542.9885837804,
        "Argument of Periapsis(deg)": 0.004316256449669204,
        "Eccentricity": 0.0,
        "Inclination(deg)": 45.0,
        "Latitude(deg)": 41.7320716567303,
        "Longitude(deg)": 17.246600735855367,
        "Mean Anomaly(deg)": 69.82498209799273,
        "RAAN(deg)": 54.995925580079,
        "Satellite Name": "Constellation 1 246",
        "Satellite Number": 246,
        "Semi-Major Axis(m)": 7083131.272910544,
        "Time(s)": 72
    },
    {
        "Altitude(m)": 706547.3419403764,
        "Argument of Periapsis(deg)": 0.00437620445591461,
        "Eccentricity": 0.0,
        "Inclination(deg)": 45.0,
        "Latitude(deg)": 41.75190463957567,
        "Longitude(deg)": 17.319253126974505,
        "Mean Anomaly(deg)": 69.88568323824263,
        "RAAN(deg)": 54.99586899091343,
        "Satellite Name": "Constellation 1 246",
        "Satellite Number": 246,
        "Semi-Major Axis(m)": 7083131.272910544,
        "Time(s)": 73
    },
    {
        "Altitude(m)": 706551.6851500281,
        "Argument of Periapsis(deg)": 0.004436152462160016,
        "Eccentricity": 0.0,
        "Inclination(deg)": 45.0,
        "Latitude(deg)": 41.771686259347526,
        "Longitude(deg)": 17.391952526088655,
        "Mean Anomaly(deg)": 69.94638437849252,
        "RAAN(deg)": 54.995812401747855,
        "Satellite Name": "Constellation 1 246",
        "Satellite Number": 246,
        "Semi-Major Axis(m)": 7083131.272910544,
        "Time(s)": 74
    },
    {
        "Altitude(m)": 706556.0181867994,
        "Argument of Periapsis(deg)": 0.0044961004684054215,
        "Eccentricity": 0.0,
        "Inclination(deg)": 45.0,
        "Latitude(deg)": 41.79141644949853,
        "Longitude(deg)": 17.46469920871358,
        "Mean Anomaly(deg)": 70.00708551874243,
        "RAAN(deg)": 54.99575581258228,
        "Satellite Name": "Constellation 1 246",
        "Satellite Number": 246,
        "Semi-Major Axis(m)": 7083131.272910544,
        "Time(s)": 75
    }
]